{
  "norad_id": 59846,
  "name": "STARLINK-31922",
  "history": [
    {
      "epoch": "2026-03-28T13:01:14.045088Z",
      "apogee_km": 483.48279102064953,
      "perigee_km": 482.50713805529267,
      "latitude_deg": -8.779059781841957e-07,
      "longitude_deg": 146.30890634686122,
      "height_km": 482.74941584689003,
      "semi_major_axis_km": 6861.131964537971,
      "eccentricity": 7.11e-05,
      "inclination_deg": 43.0007,
      "raan_deg": 167.5789,
      "arg_perigee_deg": 87.6178,
      "mean_anomaly_deg": 272.4755,
      "mean_motion_rev_day": 15.27598078
    },
    {
      "epoch": "2026-03-30T04:15:09.191808Z",
      "apogee_km": 483.62076358803915,
      "perigee_km": 482.4351542831346,
      "latitude_deg": -4.089842813710831e-05,
      "longitude_deg": -93.0126141701495,
      "height_km": 483.39599330483765,
      "semi_major_axis_km": 6861.164958935587,
      "eccentricity": 8.64e-05,
      "inclination_deg": 43.0057,
      "raan_deg": 158.3484,
      "arg_perigee_deg": 177.232,
      "mean_anomaly_deg": 182.8536,
      "mean_motion_rev_day": 15.27587059
    },
    {
      "epoch": "2026-03-30T05:49:20.536320Z",
      "apogee_km": 484.38953836030487,
      "perigee_km": 482.70581817395214,
      "latitude_deg": 6.688403673832627e-05,
      "longitude_deg": -116.99293810341085,
      "height_km": 483.6524834512573,
      "semi_major_axis_km": 6861.684678267128,
      "eccentricity": 0.00012269,
      "inclination_deg": 43.0052,
      "raan_deg": 157.9797,
      "arg_perigee_deg": 113.0855,
      "mean_anomaly_deg": 247.0127,
      "mean_motion_rev_day": 15.27413508
    },
    {
      "epoch": "2026-03-30T12:05:55.065120Z",
      "apogee_km": 483.50639425866757,
      "perigee_km": 482.44648945417066,
      "latitude_deg": 7.71166017735237e-06,
      "longitude_deg": 147.1278723494251,
      "height_km": 482.68481847377825,
      "semi_major_axis_km": 6861.113441856419,
      "eccentricity": 7.724e-05,
      "inclination_deg": 43.0044,
      "raan_deg": 156.5022,
      "arg_perigee_deg": 277.4015,
      "mean_anomaly_deg": 82.6749,
      "mean_motion_rev_day": 15.27604264
    },
    {
      "epoch": "2026-03-30T21:30:52.577568Z",
      "apogee_km": 483.7935072951841,
      "perigee_km": 482.3507322414798,
      "latitude_deg": -5.480682188790865e-05,
      "longitude_deg": 3.285670562795082,
      "height_km": 482.65091672041876,
      "semi_major_axis_km": 6861.209119768331,
      "eccentricity": 0.00010514,
      "inclination_deg": 43.0056,
      "raan_deg": 154.2864,
      "arg_perigee_deg": 285.9496,
      "mean_anomaly_deg": 74.1239,
      "mean_motion_rev_day": 15.27572311
    },
    {
      "epoch": "2026-03-31T21:03:14.254848Z",
      "apogee_km": 483.64074630490995,
      "perigee_km": 482.50315786065494,
      "latitude_deg": 5.575551664741819e-06,
      "longitude_deg": 3.687587345875093,
      "height_km": 482.89126755954817,
      "semi_major_axis_km": 6861.208952082782,
      "eccentricity": 8.29e-05,
      "inclination_deg": 43.0028,
      "raan_deg": 148.7453,
      "arg_perigee_deg": 265.6841,
      "mean_anomaly_deg": 94.3916,
      "mean_motion_rev_day": 15.27572367
    },
    {
      "epoch": "2026-04-01T20:35:36.242304Z",
      "apogee_km": 483.83082954741167,
      "perigee_km": 482.64930041682055,
      "latitude_deg": 6.423615170034292e-05,
      "longitude_deg": 4.088006235984947,
      "height_km": 483.45196044111293,
      "semi_major_axis_km": 6861.377064982115,
      "eccentricity": 8.61e-05,
      "inclination_deg": 43.0042,
      "raan_deg": 143.204,
      "arg_perigee_deg": 222.5065,
      "mean_anomaly_deg": 137.5721,
      "mean_motion_rev_day": 15.27516226
    },
    {
      "epoch": "2026-04-02T20:07:55.356096Z",
      "apogee_km": 483.57568954795624,
      "perigee_km": 482.5149507612605,
      "latitude_deg": -8.887269988073007e-06,
      "longitude_deg": 4.504690519442843,
      "height_km": 482.70748578841153,
      "semi_major_axis_km": 6861.182320154608,
      "eccentricity": 7.73e-05,
      "inclination_deg": 43.0033,
      "raan_deg": 137.6671,
      "arg_perigee_deg": 282.4519,
      "mean_anomaly_deg": 77.6246,
      "mean_motion_rev_day": 15.27581261
    },
    {
      "epoch": "2026-04-02T20:07:55.356960Z",
      "apogee_km": 483.57541510066403,
      "perigee_km": 482.5152252085527,
      "latitude_deg": -1.1944645307352285e-05,
      "longitude_deg": 4.504683649425495,
      "height_km": 482.70754495462455,
      "semi_major_axis_km": 6861.182320154608,
      "eccentricity": 7.726e-05,
      "inclination_deg": 43.0033,
      "raan_deg": 137.6671,
      "arg_perigee_deg": 282.4519,
      "mean_anomaly_deg": 77.6246,
      "mean_motion_rev_day": 15.27581261
    },
    {
      "epoch": "2026-04-03T11:49:28.656192Z",
      "apogee_km": 483.57688041567235,
      "perigee_km": 482.4408118864667,
      "latitude_deg": 1.5971169469083003e-05,
      "longitude_deg": 124.77849520427736,
      "height_km": 482.7870238024967,
      "semi_major_axis_km": 6861.145846151069,
      "eccentricity": 8.279e-05,
      "inclination_deg": 43.0023,
      "raan_deg": 133.9741,
      "arg_perigee_deg": 269.8266,
      "mean_anomaly_deg": 90.2491,
      "mean_motion_rev_day": 15.27593442
    },
    {
      "epoch": "2026-04-04T03:31:03.774144Z",
      "apogee_km": 483.63920958006474,
      "perigee_km": 482.5293384267825,
      "latitude_deg": 2.4194776707981656e-05,
      "longitude_deg": -114.9541132395617,
      "height_km": 482.79137809157965,
      "semi_major_axis_km": 6861.221274003423,
      "eccentricity": 8.088e-05,
      "inclination_deg": 43.0017,
      "raan_deg": 130.2823,
      "arg_perigee_deg": 277.1713,
      "mean_anomaly_deg": 82.9047,
      "mean_motion_rev_day": 15.27568252
    },
    {
      "epoch": "2026-04-05T10:54:12.066048Z",
      "apogee_km": 483.5218049348814,
      "perigee_km": 482.6450781868589,
      "latitude_deg": 5.174915527998296e-05,
      "longitude_deg": 125.58330262447306,
      "height_km": 483.09810779563804,
      "semi_major_axis_km": 6861.220441560869,
      "eccentricity": 6.389e-05,
      "inclination_deg": 43.0012,
      "raan_deg": 122.8932,
      "arg_perigee_deg": 237.0177,
      "mean_anomaly_deg": 123.0614,
      "mean_motion_rev_day": 15.2756853
    },
    {
      "epoch": "2026-04-05T18:44:58.637472Z",
      "apogee_km": 483.6530331418953,
      "perigee_km": 482.44546436211385,
      "latitude_deg": -2.0613132090399695e-05,
      "longitude_deg": 5.724742420370933,
      "height_km": 482.66706364879514,
      "semi_major_axis_km": 6861.186248752004,
      "eccentricity": 8.8e-05,
      "inclination_deg": 43.0021,
      "raan_deg": 121.051,
      "arg_perigee_deg": 285.2357,
      "mean_anomaly_deg": 74.8397,
      "mean_motion_rev_day": 15.27579949
    },
    {
      "epoch": "2026-04-06T02:35:45.646944Z",
      "apogee_km": 483.81870104792324,
      "perigee_km": 482.2690347371008,
      "latitude_deg": -3.9645343083096455e-05,
      "longitude_deg": -114.1397911827831,
      "height_km": 482.59958324250834,
      "semi_major_axis_km": 6861.180867892512,
      "eccentricity": 0.00011293,
      "inclination_deg": 43.0033,
      "raan_deg": 119.2046,
      "arg_perigee_deg": 286.5814,
      "mean_anomaly_deg": 73.4913,
      "mean_motion_rev_day": 15.27581746
    },
    {
      "epoch": "2026-04-07T09:58:53.025600Z",
      "apogee_km": 483.5788616434802,
      "perigee_km": 482.5092035205007,
      "latitude_deg": 3.374116144453738e-05,
      "longitude_deg": 126.40448736323394,
      "height_km": 482.731961685589,
      "semi_major_axis_km": 6861.18103258199,
      "eccentricity": 7.795e-05,
      "inclination_deg": 43.0016,
      "raan_deg": 111.8185,
      "arg_perigee_deg": 279.5149,
      "mean_anomaly_deg": 80.5615,
      "mean_motion_rev_day": 15.27581691
    },
    {
      "epoch": "2026-04-08T09:31:13.944288Z",
      "apogee_km": 483.52162577389754,
      "perigee_km": 482.5624329455932,
      "latitude_deg": 1.096021766964968e-05,
      "longitude_deg": 126.81188063530267,
      "height_km": 482.77655580895,
      "semi_major_axis_km": 6861.179029359745,
      "eccentricity": 6.99e-05,
      "inclination_deg": 43.0029,
      "raan_deg": 106.2798,
      "arg_perigee_deg": 275.0104,
      "mean_anomaly_deg": 85.0668,
      "mean_motion_rev_day": 15.2758236
    },
    {
      "epoch": "2026-04-09T01:12:47.785248Z",
      "apogee_km": 483.5259308300674,
      "perigee_km": 482.60049214554147,
      "latitude_deg": -2.726901115041463e-05,
      "longitude_deg": -112.91684380790664,
      "height_km": 482.82579719318295,
      "semi_major_axis_km": 6861.200211487804,
      "eccentricity": 6.744e-05,
      "inclination_deg": 43.0033,
      "raan_deg": 102.5866,
      "arg_perigee_deg": 271.7155,
      "mean_anomaly_deg": 88.3619,
      "mean_motion_rev_day": 15.27575286
    },
    {
      "epoch": "2026-04-10T07:01:46.546176Z",
      "apogee_km": 483.62172512274356,
      "perigee_km": 482.5762099860076,
      "latitude_deg": -2.4905778112518774e-05,
      "longitude_deg": 151.59850519779948,
      "height_km": 482.8908563814624,
      "semi_major_axis_km": 6861.235967554376,
      "eccentricity": 7.619e-05,
      "inclination_deg": 43.0025,
      "raan_deg": 95.5713,
      "arg_perigee_deg": 268.305,
      "mean_anomaly_deg": 91.7714,
      "mean_motion_rev_day": 15.27563345
    },
    {
      "epoch": "2026-04-11T06:34:06.580992Z",
      "apogee_km": 483.75593477435996,
      "perigee_km": 482.38369341154157,
      "latitude_deg": -3.736515596882874e-05,
      "longitude_deg": 152.00890318527328,
      "height_km": 482.95649934591097,
      "semi_major_axis_km": 6861.2068140929505,
      "eccentricity": 0.0001,
      "inclination_deg": 43.0023,
      "raan_deg": 90.0319,
      "arg_perigee_deg": 260.7667,
      "mean_anomaly_deg": 99.3071,
      "mean_motion_rev_day": 15.27573081
    }
  ]
}